[{"OBJECT_NAME":"NUSAT-49 (KLARA DAN VON NEUMANN)","OBJECT_ID":"2024-149AJ","EPOCH":"2026-03-09T19:09:16.004160","MEAN_MOTION":15.30828857,"ECCENTRICITY":0.00011321,"INCLINATION":97.3807,"RA_OF_ASC_NODE":150.738,"ARG_OF_PERICENTER":286.7761,"MEAN_ANOMALY":73.3356,"EPHEMERIS_TYPE":0,"CLASSIFICATION_TYPE":"U","NORAD_CAT_ID":60500,"ELEMENT_SET_NO":999,"REV_AT_EPOCH":8693,"BSTAR":0.00043568345,"MEAN_MOTION_DOT":0.00012912,"MEAN_MOTION_DDOT":0},{"OBJECT_NAME":"STARLINK-34294","OBJECT_ID":"2025-137F","EPOCH":"2026-03-09T21:23:18.013344","MEAN_MOTION":15.30210458,"ECCENTRICITY":0.00010242,"INCLINATION":53.1587,"RA_OF_ASC_NODE":334.4547,"ARG_OF_PERICENTER":106.1711,"MEAN_ANOMALY":253.9403,"EPHEMERIS_TYPE":0,"CLASSIFICATION_TYPE":"U","NORAD_CAT_ID":64599,"ELEMENT_SET_NO":999,"REV_AT_EPOCH":4076,"BSTAR":0.00086245036,"MEAN_MOTION_DOT":0.00025279,"MEAN_MOTION_DDOT":0}]
